BREEZE-M R/B            
1 38746U 12044C   21077.89323203  .00002288  00000-0  14994-3 0  9996
2 38746  49.6829 239.2170 2387840 329.6115  18.5165 10.53673574315748
BREEZE-M DEB            
1 38884U 12044R   21077.92277698  .00011161  31501-5  33189-3 0  9991
2 38884  50.0074 277.0908 2266586 120.7656 263.5913 10.90027266326692
BREEZE-M DEB            
1 38888U 12044V   21078.32951979  .00012076  40293-5  20334-3 0  9993
2 38888  50.0404 312.4805 1671011 250.7849  90.5311 12.22780246351108
BREEZE-M DEB            
1 38921U 12044BE  21077.88422890  .00062477  62104-5  59837-3 0  9991
2 38921  50.1951  85.5806 1120433 295.0361  53.8331 13.49098422362880
BREEZE-M DEB            
1 38922U 12044BF  21077.99516201  .00012388  37857-5  28772-3 0  9991
2 38922  50.0541 291.6671 2077353  23.3883 344.9046 11.32503077335603
BREEZE-M DEB            
1 38926U 12044BK  21077.67078392  .00030401  49307-5  49595-3 0  9999
2 38926  49.9920 172.4097 1414012 313.0332  36.0207 12.77802163361332
BREEZE-M DEB            
1 38948U 12044CH  21078.38658041  .00030305  57459-5  51776-3 0  9991
2 38948  50.0554  72.7161 1541688  72.0570 304.1904 12.49743675355991
BREEZE-M DEB            
1 38957U 12044CQ  21077.71798083  .00037518  50894-5  53030-3 0  9992
2 38957  50.0060 199.9534 1527946 350.9499   6.6450 12.55098840352405
BREEZE-M DEB            
1 38959U 12044CS  21078.18240615  .00119178  10373-4  77255-3 0  9994
2 38959  49.9445 249.2919 0713217  70.3437 297.2996 14.44529115339052
BREEZE-M DEB            
1 38960U 12044CT  21077.75162176  .00019609  45965-5  43376-3 0  9994
2 38960  50.1146 201.4585 1762460  10.6001 352.7407 11.99150670293993
BREEZE-M DEB            
1 38961U 12044CU  21078.09568183  .00027194  57495-5  45811-3 0  9996
2 38961  50.0657  60.4192 1539981  75.4554 301.1613 12.50401519356344
BREEZE-M DEB            
1 38971U 12044DE  21078.48087655  .00028458  49226-5  45135-3 0  9996
2 38971  50.0752 159.3748 1371546 291.2364  54.7597 12.87443475361169
